{
    "links": {
        "self": "http://www.neowsapp.com/rest/v1/neo/3802405?api_key=iIulBulltgU6a56xZRHN4H3l9WmuAYTsLGpBGhQ2"
    },
    "id": "3802405",
    "neo_reference_id": "3802405",
    "name": "(2018 GX)",
    "designation": "2018 GX",
    "nasa_jpl_url": "http://ssd.jpl.nasa.gov/sbdb.cgi?sstr=3802405",
    "absolute_magnitude_h": 23.9,
    "estimated_diameter": {
        "kilometers": {
            "estimated_diameter_min": 0.04411182,
            "estimated_diameter_max": 0.0986370281
        },
        "meters": {
            "estimated_diameter_min": 44.1118199997,
            "estimated_diameter_max": 98.6370281305
        },
        "miles": {
            "estimated_diameter_min": 0.0274098057,
            "estimated_diameter_max": 0.0612901888
        },
        "feet": {
            "estimated_diameter_min": 144.7238235278,
            "estimated_diameter_max": 323.6123073718
        }
    },
    "is_potentially_hazardous_asteroid": false,
    "close_approach_data": [
        {
            "close_approach_date": "1969-07-06",
            "close_approach_date_full": "1969-Jul-06 19:14",
            "epoch_date_close_approach": -15396360000,
            "relative_velocity": {
                "kilometers_per_second": "13.9561926739",
                "kilometers_per_hour": "50242.2936260908",
                "miles_per_hour": "31218.6073922785"
            },
            "miss_distance": {
                "astronomical": "0.1972577986",
                "lunar": "76.7332836554",
                "kilometers": "29509346.511448982",
                "miles": "18336257.6586486716"
            },
            "orbiting_body": "Earth"
        },
        {
            "close_approach_date": "1980-03-20",
            "close_approach_date_full": "1980-Mar-20 05:21",
            "epoch_date_close_approach": 322377660000,
            "relative_velocity": {
                "kilometers_per_second": "17.461835324",
                "kilometers_per_hour": "62862.6071663834",
                "miles_per_hour": "39060.3794362453"
            },
            "miss_distance": {
                "astronomical": "0.3060974535",
                "lunar": "119.0719094115",
                "kilometers": "45791527.056024045",
                "miles": "28453535.504640021"
            },
            "orbiting_body": "Earth"
        },
        {
            "close_approach_date": "1988-07-23",
            "close_approach_date_full": "1988-Jul-23 02:33",
            "epoch_date_close_approach": 585628380000,
            "relative_velocity": {
                "kilometers_per_second": "21.6416972913",
                "kilometers_per_hour": "77910.1102487516",
                "miles_per_hour": "48410.3126709535"
            },
            "miss_distance": {
                "astronomical": "0.4480981794",
                "lunar": "174.3101917866",
                "kilometers": "67034533.189117878",
                "miles": "41653327.4332595964"
            },
            "orbiting_body": "Earth"
        },
        {
            "close_approach_date": "2018-05-07",
            "close_approach_date_full": "2018-May-07 12:20",
            "epoch_date_close_approach": 1525695600000,
            "relative_velocity": {
                "kilometers_per_second": "7.3702226776",
                "kilometers_per_hour": "26532.8016391815",
                "miles_per_hour": "16486.4511074125"
            },
            "miss_distance": {
                "astronomical": "0.065210448",
                "lunar": "25.366864272",
                "kilometers": "9755344.12254576",
                "miles": "6061689.753461088"
            },
            "orbiting_body": "Earth"
        },
        {
            "close_approach_date": "2028-11-23",
            "close_approach_date_full": "2028-Nov-23 20:43",
            "epoch_date_close_approach": 1858624980000,
            "relative_velocity": {
                "kilometers_per_second": "13.4207847154",
                "kilometers_per_hour": "48314.8249752852",
                "miles_per_hour": "30020.9533297821"
            },
            "miss_distance": {
                "astronomical": "0.0894944304",
                "lunar": "34.8133334256",
                "kilometers": "13388176.164703248",
                "miles": "8319026.9103429024"
            },
            "orbiting_body": "Mars"
        }
    ],
    "orbital_data": {
        "orbit_id": "5",
        "orbit_determination_date": "2018-07-15 06:53:48",
        "first_observation_date": "2018-04-08",
        "last_observation_date": "2018-07-14",
        "data_arc_in_days": 97,
        "observations_used": 31,
        "orbit_uncertainty": "6",
        "minimum_orbit_intersection": ".0557591",
        "jupiter_tisserand_invariant": "3.734",
        "epoch_osculation": "2459000.5",
        "eccentricity": ".494982447047179",
        "semi_major_axis": "1.946960572489337",
        "inclination": "3.540568492868914",
        "ascending_node_longitude": "147.9125660232903",
        "orbital_period": "992.2798265594485",
        "perihelion_distance": ".9832492640141881",
        "perihelion_argument": "86.63873179970419",
        "aphelion_distance": "2.910671880964485",
        "perihelion_time": "2459245.120581547552",
        "mean_anomaly": "271.2514363388173",
        "mean_motion": ".362800885762472",
        "equinox": "J2000",
        "orbit_class": {
            "orbit_class_type": "APO",
            "orbit_class_description": "Near-Earth asteroid orbits which cross the Earth’s orbit similar to that of 1862 Apollo",
            "orbit_class_range": "a (semi-major axis) > 1.0 AU; q (perihelion) < 1.017 AU"
        }
    },
    "is_sentry_object": false
}